#aV2019  9 25  0  0  0.00000000     288 DD+AD WGS84 FIT  NGA
## 2072 259200.00000000   300.00000000 58751 0.0000000000000
+   31     1  2  3  5  6  7  8  9 10 11 12 13 14 15 16 17 18
+         19 20 21 22 23 24 25 26 27 28 29 30 31 32  0  0  0
+          0  0  0  0  0  0  0  0  0  0  0  0  0  0  0  0  0
+          0  0  0  0  0  0  0  0  0  0  0  0  0  0  0  0  0
+          0  0  0  0  0  0  0  0  0  0  0  0  0  0  0  0  0
++         2  2  2  2  2  2  2  2  2  2  2  2  2  2  2  2  2
++         2  2  2  2  2  2  2  2  2  2  2  2  2  2  0  0  0
++         0  0  0  0  0  0  0  0  0  0  0  0  0  0  0  0  0
++         0  0  0  0  0  0  0  0  0  0  0  0  0  0  0  0  0
++         0  0  0  0  0  0  0  0  0  0  0  0  0  0  0  0  0
%c cc cc ccc ccc cccc cccc cccc cccc ccccc ccccc ccccc ccccc
%c cc cc ccc ccc cccc cccc cccc cccc ccccc ccccc ccccc ccccc
%f  0.0000000  0.000000000  0.00000000000  0.000000000000000
%f  0.0000000  0.000000000  0.00000000000  0.000000000000000
%i    0    0    0    0      0      0      0      0         0
%i    0    0    0    0      0      0      0      0         0
/*      NGA, ST. LOUIS,MO.                                  
/*   EPHEMERIS COMPUTED FROM 2 DAYS OF DATA                 
/*   EPOCHA v5 SMOOTHER                                     
/*   G1762 IERS2010 SATAF SATAPC                            
*  2019  9 25 20 40  0.00000000
P  1 -14110.697032  21220.500176   6670.202047   -140.973527                    
V  1   1209.299329  -9064.859862  30782.414460     -0.129340                    
P  2  16181.154291  -3020.634442 -20199.904628   -312.787366                    
V  2  -7931.977688  25942.422512 -10061.664007     -0.080762                    
P  3 -16619.845978  13177.360557 -15988.072354    -14.940605                    
V  3 -20308.239056    525.679477  21707.488982     -0.043136                    
P  5  26488.538689  -2588.452017  -1881.063202     -1.734988                    
V  5  -1755.156945   3246.173108 -31277.037318     -0.003659                    
P  6   9789.188997  13086.630222 -20889.935168    -69.435974                    
V  6 -11053.846242  24184.190091   9976.451281     -0.126653                    
P  7  -4388.406121  24640.662372   8408.784682   -113.975649                    
V  7  -7075.390418   8289.658236 -29421.304255     -0.080008                    
P  8 -13950.737986   6302.448924  21755.039754     -7.745037                    
V  8 -16634.851306 -21892.107168  -4127.986530     -0.013442                    
P  9   3776.072099  21867.134163 -14635.505725    -40.456999                    
V  9 -13123.629395 -13270.115264 -23293.153069     -0.097556                    
P 10 -13384.702148 -12088.127536  19630.549107    -68.539069                    
V 10  24399.748185  -4092.465140  13950.355895     -0.157179                    
P 11  -9524.380917  20561.417411  13567.303310   -496.585372                    
V 11  -4165.515798 -17931.346264  23060.780715      0.111157                    
P 12  20615.323448 -10070.645874 -13450.154922    200.372184                    
V 12  16821.372091    907.712550  25664.981335     -0.038426                    
P 13  17717.604441   4362.278737  19209.207071    -42.355282                    
V 13  11155.019496  21951.814887 -15118.456494      0.020892                    
P 14 -18323.183944 -16804.021597  -9273.321674    -59.428158                    
V 14  -4424.137015 -11619.542273  28606.932507      0.019797                    
P 15  13479.074140  -8523.072371  20981.955203   -284.362616                    
V 15  18338.803733  20364.762581  -3072.674873      0.027075                    
P 16 -26589.425933  -1309.251643  -3255.130199    -77.459609                    
V 16   3780.480959  -1878.300285 -31575.765105     -0.035345                    
P 17  14994.822301  21960.868215   -395.636066    132.445959                    
V 17  -1106.897646   1949.300189  32214.417200      0.072307                    
P 18 -16062.055836  15542.325640  13764.328343     88.434930                    
V 18   3964.304312 -18131.944523  24317.617081      0.028757                    
P 19  17425.647825  18460.136925  -8057.561553   -262.302831                    
V 19   3401.934945   9403.332560  30041.118561      0.052018                    
P 20  -3094.407418 -15497.881120  21237.509448    526.996584                    
V 20  26564.598218  -6446.389455  -1007.769038      0.001119                    
P 21   -803.044514 -24019.068515  12301.688574   -112.734525                    
V 21   6957.416601 -12763.222083 -25980.880638      0.063782                    
P 22 -22093.312963  11333.415439  -9076.535221   -758.341370                    
V 22 -12389.067883  -1196.665912  28082.703124     -0.035891                    
P 23  -6788.944174  15169.910061 -20294.635737   -164.904492                    
V 23 -17454.555851 -20238.799690  -9520.114973      0.020728                    
P 24  14412.685971 -20061.593115   9121.189666     -2.631854                    
V 24   -773.015103  12441.389681  28426.327832     -0.005855                    
P 25   6681.166313 -15227.463998 -20864.638198    -13.508090                    
V 25  25975.129683  -2156.341667  10241.352371     -0.013216                    
P 26 -22804.983868  -5686.347869 -12567.281618     47.320092                    
V 26  15351.192032  -4758.573955 -25550.114458      0.087111                    
P 27 -19370.617136  -6820.716522  16897.179287    -67.376074                    
V 27 -11919.908744 -17955.420181 -20480.590420     -0.124085                    
P 28  12447.032870  13078.830565  20051.040029    761.106681                    
V 28 -24091.582918   1582.813217  14465.850164     -0.011769                    
P 29   -616.703268 -20867.524253 -16439.189549     88.067178                    
V 29  12478.070206  16653.759667 -21674.843514     -0.103001                    
P 30   4083.213087  20079.540048  16828.030237    -48.341073                    
V 30 -11239.934604  18403.408089 -19464.568594     -0.080280                    
P 31 -11367.225211 -11012.658271 -21274.614399      7.904218                    
V 31  12028.756267 -24268.409322   6580.848859     -0.026315                    
P 32 -16462.245767 -20921.088943   -574.708196     69.789195                    
V 32   1763.577376  -2352.853761  31582.282847      0.133936                    
EOF
